OBJECT_NAME,OBJECT_ID,EPOCH,MEAN_MOTION,ECCENTRICITY,INCLINATION,RA_OF_ASC_NODE,ARG_OF_PERICENTER,MEAN_ANOMALY,EPHEMERIS_TYPE,CLASSIFICATION_TYPE,NORAD_CAT_ID,ELEMENT_SET_NO,REV_AT_EPOCH,BSTAR,MEAN_MOTION_DOT,MEAN_MOTION_DDOT
GSAT0215 (GALILEO 19),2017-079A,2026-06-07T15:07:36.425280,1.70474655,.00032715,55.0756,221.7698,266.5445,93.5000,0,U,43055,999,5282,0,.42E-6,0
GSAT0216 (GALILEO 20),2017-079B,2026-06-07T08:02:11.841792,1.70474847,.00041563,55.0761,221.7781,276.5849,83.4502,0,U,43056,999,5283,0,.42E-6,0
GSAT0217 (GALILEO 21),2017-079C,2026-06-06T09:10:47.504064,1.70474392,.00034764,55.0744,221.8020,288.9809,71.0662,0,U,43057,999,5280,0,.41E-6,0
GSAT0218 (GALILEO 22),2017-079D,2026-06-06T14:27:41.482944,1.70474520,.0005473,55.0744,221.7937,271.7341,88.2873,0,U,43058,999,5283,0,.42E-6,0
BEIDOU-3 M7 (C27),2018-003A,2026-06-06T01:47:04.381728,1.86228500,.00050036,54.3387,302.7026,91.1037,268.9441,0,U,43107,999,5714,0,-.56E-6,0
BEIDOU-3 M8 (C28),2018-003B,2026-06-07T15:07:25.492224,1.86231337,.00024505,54.3300,302.6304,266.3856,93.5786,0,U,43108,999,5718,0,-.56E-6,0
BEIDOU-3 M4 (C22),2018-018A,2026-06-06T23:58:47.379072,1.86231216,.00077155,56.6416,63.4852,16.7509,343.3023,0,U,43207,999,5655,0,-.39E-6,0
BEIDOU-3 M3 (C21),2018-018B,2026-06-08T03:20:55.965696,1.86231220,.0008813,56.6424,63.4518,338.8483,21.1416,0,U,43208,999,5657,0,-.42E-6,0
BEIDOU-3 M9 (C29),2018-029A,2026-06-08T08:34:31.821600,1.86228284,.00009,54.2026,300.2584,146.6725,213.3256,0,U,43245,999,5573,0,-.57E-6,0
BEIDOU-3 M10 (C30),2018-029B,2026-06-07T05:13:38.021088,1.86229596,.00040884,54.2009,300.3239,38.8353,321.1867,0,U,43246,999,5569,0,-.55E-6,0
IRNSS-1I,2018-035A,2026-06-07T20:31:48.345888,1.00270205,.00167942,28.7324,74.3437,191.1126,353.6742,0,U,43286,999,2998,0,.93E-6,0
COSMOS 2527 (756),2018-053A,2026-06-08T04:02:54.649248,2.13102353,.0007414,65.5727,74.2082,241.4308,118.5156,0,U,43508,999,6208,0,-.13E-6,0
BEIDOU-2 IGSO-7 (C16),2018-057A,2026-06-07T22:56:30.122880,1.00254381,.01048541,55.1932,163.1382,237.9598,310.0357,0,U,43539,999,2903,0,.24E-6,0
GSAT0221 (GALILEO 25),2018-060A,2026-06-07T16:18:42.494400,1.70476000,.00026985,57.1742,342.0370,308.1771,51.8137,0,U,43564,999,4900,0,-.63E-6,0
GSAT0222 (GALILEO 26),2018-060B,2026-06-06T03:20:56.385600,1.70475822,.0001851,57.1798,342.0825,255.3617,104.6309,0,U,43565,999,4902,0,-.66E-6,0
GSAT0219 (GALILEO 23),2018-060C,2026-06-07T12:48:24.818976,1.70475974,.00022833,57.1754,342.0461,330.3501,29.6519,0,U,43566,999,4902,0,-.63E-6,0
GSAT0220 (GALILEO 24),2018-060D,2026-06-05T23:52:34.266720,1.70475975,.00022902,57.1767,342.0886,320.0107,39.9854,0,U,43567,999,4898,0,-.66E-6,0
BEIDOU-3 M5 (C23),2018-062A,2026-06-07T10:36:21.385152,1.86228982,.00056063,54.0850,182.6354,288.5273,71.4667,0,U,43581,999,5345,0,.98E-6,0
BEIDOU-3 M6 (C24),2018-062B,2026-06-07T20:12:54.768384,1.86227919,.0004796,54.0845,182.6112,9.6261,350.4388,0,U,43582,999,5346,0,.103E-5,0
BEIDOU-3 M12 (C26),2018-067A,2026-06-08T07:37:25.949280,1.86227940,.0007741,54.1798,181.3412,30.1174,329.9821,0,U,43602,999,5295,0,.11E-5,0
BEIDOU-3 M11 (C25),2018-067B,2026-06-06T20:12:12.929184,1.86227396,.00044751,54.1771,181.3547,14.0592,346.0057,0,U,43603,999,5295,0,.93E-6,0
BEIDOU-3 M13 (C32),2018-072A,2026-06-06T06:14:03.962976,1.86231624,.00076633,56.6156,63.0201,326.1226,33.8571,0,U,43622,999,5245,0,-.38E-6,0
BEIDOU-3 M14 (C33),2018-072B,2026-06-06T03:00:17.592768,1.86231671,.00062726,56.6173,63.0188,355.0918,4.9306,0,U,43623,999,5244,0,-.38E-6,0
BEIDOU-3 M16 (C35),2018-078A,2026-06-07T21:23:49.303104,1.86232308,.00073468,54.0990,300.3120,40.7643,319.2834,0,U,43647,999,5198,0,-.56E-6,0
BEIDOU-3 M15 (C34),2018-078B,2026-06-01T13:51:31.248864,1.86232507,.00045363,54.1007,300.5335,56.3394,303.6792,0,U,43648,999,5188,0,-.74E-6,0
BEIDOU-3 G1 (C59),2018-085A,2026-06-08T10:43:12.930816,1.00271672,.0008506,2.8452,97.6247,347.0523,132.9463,0,U,43683,999,2797,0,-.92E-6,0
COSMOS 2529 (757),2018-086A,2026-06-07T07:50:30.395616,2.13102175,.00117267,64.2943,192.9273,256.2462,103.6914,0,U,43687,999,5907,0,.85E-6,0
BEIDOU-3 M17 (C36),2018-093A,2026-06-07T15:25:06.551616,1.86228480,.00100225,54.1686,182.6203,291.3761,66.7230,0,U,43706,999,5135,0,.101E-5,0
BEIDOU-3 M18 (C37),2018-093B,2026-06-07T12:12:16.311168,1.86226854,.00078857,54.1691,182.6169,320.2036,39.7937,0,U,43707,999,5135,0,.99E-6,0
GPS BIII-1  (PRN 04),2018-109A,2026-06-08T05:39:15.674976,2.00561280,.0038218,55.6763,92.5404,198.1524,302.1790,0,U,43873,999,5489,0,.13E-6,0
BEIDOU-3 IGSO-1 (C38),2019-023A,2026-06-06T22:54:10.040832,1.00294902,.0025419,58.6799,37.7569,225.7371,92.8010,0,U,44204,999,710,0,-.215E-5,0
